[{"OBJECT_NAME":"STARLINK-30556","OBJECT_ID":"2023-156D","EPOCH":"2026-03-09T06:02:50.388576","MEAN_MOTION":15.30189725,"ECCENTRICITY":0.0001273,"INCLINATION":53.1604,"RA_OF_ASC_NODE":90.4239,"ARG_OF_PERICENTER":102.6624,"MEAN_ANOMALY":257.452,"EPHEMERIS_TYPE":0,"CLASSIFICATION_TYPE":"U","NORAD_CAT_ID":58031,"ELEMENT_SET_NO":999,"REV_AT_EPOCH":13609,"BSTAR":-6.9054e-6,"MEAN_MOTION_DOT":-5.64e-6,"MEAN_MOTION_DDOT":0},{"OBJECT_NAME":"TANSTAAFL-2","OBJECT_ID":"2024-247B","EPOCH":"2026-03-08T04:58:51.015360","MEAN_MOTION":15.28016845,"ECCENTRICITY":0.00030723,"INCLINATION":44.988,"RA_OF_ASC_NODE":125.0934,"ARG_OF_PERICENTER":298.8909,"MEAN_ANOMALY":61.1666,"EPHEMERIS_TYPE":0,"CLASSIFICATION_TYPE":"U","NORAD_CAT_ID":62378,"ELEMENT_SET_NO":999,"REV_AT_EPOCH":6750,"BSTAR":0.00050871624,"MEAN_MOTION_DOT":0.00013897,"MEAN_MOTION_DDOT":0}]
